IRIDIUM 159             
1 43578U 18061K   24060.93747802  .00000204  00000+0  65840-4 0  9997
2 43578  86.3947  47.0085 0002182  85.2664 274.8781 14.34218326293234
IRIDIUM 180             
1 43922U 19002A   24060.86720996  .00000482  00000+0  16512-3 0  9992
2 43922  86.4023 343.9514 0002216  83.6374 276.5074 14.34217608268830
IRIDIUM 176             
1 43923U 19002B   24060.84527344  .00001460  00000+0  22758-3 0  9999
2 43923  86.6150 343.9889 0002661  87.9523 272.1999 14.72275255275904
IRIDIUM 168             
1 43924U 19002C   24060.86086582 -.00000053  00000+0 -25961-4 0  9995
2 43924  86.4025 344.0075 0002181  84.3308 275.8136 14.34217121268813
IRIDIUM 173             
1 43925U 19002D   24060.84817273  .00000389  00000+0  13184-3 0  9996
2 43925  86.4022 343.9364 0002128  82.4085 277.7352 14.34219390268790
IRIDIUM 169             
1 43926U 19002E   24060.89659039  .00000489  00000+0  15330-3 0  9992
2 43926  86.4265  15.5043 0001607 165.1255 194.9991 14.38606852269703
IRIDIUM 172             
1 43927U 19002F   24060.84183863 -.00000003  00000+0 -82211-5 0  9993
2 43927  86.4018 343.9443 0002166  83.3300 276.8142 14.34217854268809
IRIDIUM 175             
1 43928U 19002G   24060.77145361  .00001333  00000+0  20740-3 0  9999
2 43928  86.1538 323.3013 0002288  85.3167 274.8311 14.72261020275885
